{"type":"Topology","objects":{"data":{"geometries":[{"properties":{"STE_NAME21":"New South Wales"},"type":"Polygon","arcs":[[-7,0,-5,1,-13,2,-11,3],[61]],"id":0},{"properties":{"STE_NAME21":"Victoria"},"type":"MultiPolygon","arcs":[[[4,5,6,7]],[[8]],[[9]]],"id":1},{"properties":{"STE_NAME21":"Queensland"},"type":"MultiPolygon","arcs":[[[10,11,12,13,-47,14]],[[15]],[[16]],[[17]],[[18]],[[19]],[[20]],[[21]],[[22]],[[23]],[[24]],[[25]],[[26]],[[27]]],"id":2},{"properties":{"STE_NAME21":"South Australia"},"type":"MultiPolygon","arcs":[[[28]],[[29]]],"id":3},{"properties":{"STE_NAME21":"Western Australia"},"type":"MultiPolygon","arcs":[[[30]],[[31]],[[32]],[[33]],[[34]]],"id":4},{"properties":{"STE_NAME21":"Tasmania"},"type":"MultiPolygon","arcs":[[[35]],[[36]],[[37]],[[38]],[[39]],[[40]],[[41]],[[42]],[[43]],[[44]],[[45]]],"id":5},{"properties":{"STE_NAME21":"Northern Territory"},"type":"MultiPolygon","arcs":[[[46,47]],[[48]],[[49]],[[50]],[[51]],[[52]],[[53]],[[54]],[[55]],[[56]],[[57]],[[58]],[[59]],[[60]]],"id":6},{"properties":{"STE_NAME21":"Australian Capital Territory"},"type":"Polygon","arcs":[[61]],"id":7}],"type":"GeometryCollection"}},"bbox":[112.92817368034522,-43.6375354689935,153.60712578243925,-9.22927344602632],"transform":{"scale":[0.0004067935889568299,0.0003440860610902827],"translate":[112.92817368034522,-43.6375354689935]},"arcs":[[[73408,26421],[-372,-681],[-279,61],[-141,568]],[[72046,27117],[-20,341],[-466,260],[-887,-3],[-412,-335],[-657,450],[-549,13],[-49,14700]],[[94265,42719],[15,-476],[279,-220],[370,653],[397,237]],[[98941,44721],[923,248],[-145,-151],[148,-62],[27,98],[-21,97],[73,-254],[53,-1700],[-197,-87],[144,-12],[-589,-1204],[-180,-1817],[-592,-1693],[-107,-677],[250,-553],[-375,-1610],[-452,-1072],[-516,-555],[-9,-1183],[-503,-244],[-321,-506],[-353,149],[-49,-86],[-176,75],[-62,-64],[-4,-185],[604,78],[-181,-232],[-811,-372],[13,173],[66,107],[-320,6],[101,-165],[-78,133],[118,-58],[74,-11],[-101,-67],[78,-132],[50,-1],[34,18],[-341,-479],[-47,-3],[39,143],[-71,59],[38,117],[-67,37],[-7,-347],[-256,-34],[142,-236],[242,256],[-216,-569],[-184,-178],[48,239],[155,156],[-60,37],[-294,-325],[155,-137],[-215,-491],[-178,-69],[-18,73],[63,3],[-54,88],[102,53],[-153,122],[-50,-191],[123,-58],[-92,-40],[-7,-72],[-125,-47],[-53,340],[-109,-104],[17,-136],[-83,318],[-228,-60],[-13,-37],[71,-68],[143,46],[-85,-383],[272,176],[-170,-350],[323,254],[-50,-246],[87,-22],[65,239],[19,-125],[-70,-206],[-110,-55],[93,-270],[-596,-47],[305,-150],[190,13],[36,111],[12,-172],[-68,-84],[18,-139],[-596,12],[-18,-53],[46,16],[-13,-28],[9,-16],[80,4],[-45,-99],[450,-3],[-397,-107],[253,-68],[-599,-669],[-15,-514],[-271,-42],[228,-258],[-383,-819],[249,-396],[-113,-232],[-63,268],[-224,-43],[36,-308],[-546,-484],[-500,-1261],[-243,60],[147,-287],[-214,-260],[-5,-1093],[-598,-1879],[96,-412],[-174,-78],[323,-172],[113,-344],[-264,-60],[81,-653]],[[72046,27117],[395,-90],[-72,-558],[247,-100]],[[72616,26369],[218,-613],[349,145],[-23,316],[248,204]],[[73408,26421],[238,-387],[556,-4],[581,-324],[-66,-706],[177,-456],[433,-42],[120,-523],[862,-331],[1861,-1794],[625,132],[-142,243],[117,372],[1385,170],[677,-549],[1376,-173],[326,269],[1085,-458],[268,23],[175,330],[480,-194],[209,342],[1250,-151],[307,-422],[-1,-723],[443,-609],[-267,-587],[4590,-2047]],[[91073,17822],[-505,-161],[-693,-621],[-2948,-107],[-1232,-419],[-2224,-1974],[103,114],[-270,-48],[-302,-186],[-98,94],[-262,-119],[12,-56],[-830,24],[192,-607],[457,332],[-113,-640],[127,-146],[-217,-215],[-638,860],[-248,75],[-279,-281],[-383,705],[-389,-35],[-578,415],[110,375],[325,103],[-147,402],[-576,30],[-174,-441],[124,-101],[-734,-254],[-698,560],[668,-130],[477,596],[-469,883],[-1391,-775],[294,-168],[522,128],[-78,-442],[-575,-28],[-961,-563],[-1188,-1104],[-2903,1472],[-557,-123],[-992,403],[-346,-176],[61,-270],[-619,57],[-195,483],[-810,478],[-5,11844],[147,-229],[1159,-276],[37,-180],[545,365],[1068,-178],[172,-450]],[[79520,15258],[51,306],[505,-206],[-237,-57],[-132,-138],[-187,95]],[[79236,15013],[339,59],[-62,-22],[57,-133],[158,-177],[-602,137],[110,136]],[[98941,44721],[-170,-316],[-558,141],[-319,-157],[-335,273],[-86,-201],[-285,232],[-186,-314],[-1063,-441],[296,-550],[-160,-576],[-575,-152],[-174,253]],[[95326,42913],[-903,-894],[-158,700]],[[94265,42719],[-561,271],[-90,303],[-638,310],[-757,-87],[-377,369],[-1442,-281],[-490,173],[-1339,-1234],[-19565,0]],[[69006,42543],[0,8727],[-7376,-2]],[[61620,78757],[808,-616],[751,-51],[1007,-420],[293,-340],[195,-842],[1892,-1152],[929,109],[1091,618],[318,1358],[832,1459],[335,1224],[-146,459],[151,754],[568,1822],[-344,1580],[179,664],[1,412],[-324,734],[138,849],[423,877],[-276,795],[764,1172],[-454,216],[-288,-116],[635,1670],[144,84],[11,-607],[27,-11],[60,53],[-40,230],[196,92],[-172,272],[437,1677],[37,1218],[532,191],[213,510],[421,-119],[-313,-666],[263,320],[63,-214],[421,-385],[203,-893],[-30,-1348],[953,-361],[-406,-551],[-1,-518],[417,-123],[141,-497],[327,-177],[-199,-546],[-10,-281],[118,-13],[118,150],[230,16],[-101,-816],[235,-867],[-163,-966],[620,-1891],[612,-224],[401,643],[350,-131],[438,407],[409,-1118],[80,-28],[148,43],[332,-199],[281,-528],[505,-104],[125,-357],[175,5],[-291,-545],[82,-335],[221,-62],[-307,-532],[602,-1790],[-164,-1113],[907,-1399],[172,202],[266,-72],[-167,-470],[451,-978],[9,-321],[-108,-22],[-14,-103],[4,-5],[11,70],[28,-10],[34,11],[24,42],[199,-401],[-326,-1734],[425,-665],[365,-151],[-116,-1067],[402,-525],[772,-324],[280,-343],[185,-14],[145,365],[270,-698],[776,5],[-71,317],[57,-75],[52,-108],[73,-264],[172,-234],[42,-242],[102,-128],[-35,-244],[172,-207],[230,-25],[-30,379],[175,-9],[231,-577],[399,77],[446,-276],[-76,-199],[274,-313],[543,251],[49,-381],[234,55],[-13,-299],[237,133],[173,-569],[223,-294],[-417,330],[5,-173],[-201,112],[-46,-422],[449,-844],[495,-79],[-71,-263],[516,-201],[-11,-247],[-63,64],[-109,-50],[151,-6],[-86,-406],[294,33],[-4,-692],[243,53],[112,-279],[28,20],[1,57],[25,3],[-15,16],[37,-9],[-10,71],[40,9],[-155,-697],[432,-1482],[416,-261],[-48,-46],[12,-143],[145,158],[373,-458],[71,-181],[65,-109],[71,-63],[-108,380],[-221,536],[208,582],[153,40],[289,-665],[912,-745],[10,387],[136,-49],[-167,436],[212,66],[91,-362],[15,306],[59,-242],[160,-110],[-280,-17],[85,-287],[113,28],[-49,-194],[21,-20],[36,-1],[19,40],[43,-22],[42,315],[155,-471],[-206,-1289],[196,-368],[-173,-132],[276,-524],[-199,-74],[192,-205],[217,77],[-78,-211],[249,147],[48,-162],[186,-125],[125,-420],[370,-114],[289,-647],[123,26],[-124,221],[255,-108],[-105,-45],[113,-199],[81,76],[-34,148],[286,-197],[-14,160],[-163,203],[295,-128],[-64,-48],[28,-137],[122,206],[685,-1479],[1042,-846],[44,-449],[159,-300],[-66,7],[18,-28],[39,19],[211,-225],[-190,-58],[-21,-96],[903,-257],[20,-397],[-32,32],[-29,2],[-182,-220],[61,-13],[265,188],[-229,-349],[192,-773],[195,-29],[-66,-149],[94,7],[-71,-78],[69,-83],[-78,-99],[0,-3],[4,-3],[12,3],[24,-60],[124,303],[14,182],[-62,43],[63,-11],[105,-341],[190,-12],[-322,-1104],[222,-1421],[-65,-12],[-40,-234],[-117,-18],[-45,-222],[148,-279],[101,-31],[-282,-299],[210,-36],[-123,-320],[235,-222],[-129,-186],[-144,4],[-108,-96],[-27,-48],[64,-31],[-31,-60],[-92,48],[-167,-124],[176,8],[-4,112],[54,-51],[39,4],[30,71],[-44,61],[67,-14],[10,49],[18,-37],[24,8],[10,13],[-9,82],[91,-23],[58,27],[123,113],[-19,27],[80,137],[33,-22],[-91,-132],[66,-226],[309,-305],[-61,-350],[19,-33],[7,-5],[9,1],[100,56],[158,-133],[35,-3],[31,18],[-219,-187],[127,-188],[-144,-132],[14,-27],[128,135],[-11,-32],[34,-206],[27,-56],[-13,-57],[22,-14],[20,175],[43,-422],[250,-235],[-479,-247],[-444,-1]],[[99590,47213],[252,-96],[-297,-917],[-72,99],[70,188],[47,726]],[[99395,48175],[263,95],[-97,-972],[-156,470],[-10,407]],[[99392,54146],[-777,-2290],[-207,624],[-43,-17],[14,14],[5,15],[10,47],[-8,22],[90,128],[-3,170],[160,303],[-145,362],[559,642],[-248,541],[321,337],[272,-898]],[[98986,48070],[-290,345],[34,98],[-32,110],[72,43],[56,53],[5,187],[155,-836]],[[94365,57771],[-75,-110],[-45,128],[-125,-127],[-211,371],[-202,135],[-37,152],[-135,239],[195,118],[39,-118],[319,-69],[-47,-85],[83,66],[44,101],[197,-801]],[[92335,62284],[175,-260],[-184,-157],[9,417]],[[88592,68243],[237,-401],[-246,-101],[9,502]],[[81906,73649],[-58,296],[332,-654],[-131,-217],[-577,716],[434,-141]],[[71794,99883],[217,116],[180,-97],[-122,-82],[-275,63]],[[71949,96032],[199,-326],[-174,-58],[-71,-129],[-166,317],[212,196]],[[72146,97004],[-223,202],[201,216],[22,-418]],[[64486,78549],[366,432],[593,205],[371,-278],[-264,-200],[-116,271],[-177,-187],[-59,-407],[-186,70],[-153,-256],[-375,350]],[[65060,77171],[245,304],[207,-332],[-452,28]],[[39513,34731],[0,16532],[29493,7],[-83,-35049],[-746,-11],[-655,408],[-676,1130],[-719,658],[-388,1004],[443,393],[-72,775],[-538,1198],[-743,930],[-1381,897],[-263,-81],[-268,-288],[-1045,48],[846,805],[187,920],[-97,727],[93,33],[-46,-230],[155,75],[-79,245],[-643,763],[-402,984],[-530,-1069],[-315,-1764],[-299,-157],[-524,204],[-620,-403],[-712,-185],[-148,158],[293,342],[179,684],[1068,-50],[149,849],[-66,523],[-166,-63],[209,429],[-123,514],[177,17],[295,864],[824,795],[-237,686],[-171,164],[597,442],[-250,313],[-20,724],[-262,178],[-190,764],[-16,-76],[27,-60],[-30,-50],[24,-36],[-30,-71],[37,-193],[-37,-319],[147,-109],[-60,-736],[-354,133],[-464,-516],[-592,-1539],[-1520,-689],[-1183,-1337],[-42,-523],[-96,175],[-307,-147],[14,-347],[-205,-47],[93,-250],[-260,-167],[542,212],[-114,-327],[109,-384],[-140,-73],[-39,159],[-186,68],[9,81],[-14,37],[-152,75],[-426,-243],[-900,1141],[-353,-103],[236,460],[40,-202],[325,-67],[-137,-89],[169,-261],[47,-6],[129,31],[34,55],[158,2],[-208,30],[-65,280],[-40,-252],[-336,1781],[-1037,1031],[40,535],[-460,610],[148,10],[-38,153],[-359,43],[178,-243],[-444,292],[-200,-90],[-25,147],[-208,290],[12,-239],[196,-118],[-74,-149],[-239,452],[-156,-30],[84,263],[-347,162],[191,198],[-192,341],[356,-8],[-124,-7],[165,-181],[169,282],[-59,346],[-402,359],[-624,-266],[44,416],[209,21],[-318,455],[-353,94],[-32,287],[-666,-112],[227,-185],[-887,-5],[-939,752],[-1338,-228],[-1086,893],[-1500,745],[-842,-412],[-1607,84],[-2828,-321]],[[60734,23453],[-130,-471],[519,-25],[-119,-195],[25,-109],[145,52],[-82,118],[396,198],[475,-370],[-230,-176],[-745,145],[-680,-641],[-618,293],[-1243,-258],[-406,475],[119,438],[2574,526]],[[39512,83578],[1,-48847],[-1690,-849],[-2430,-806],[-1605,-151],[-1155,222],[-620,-170],[-2795,-1692],[-1414,-421],[-338,-461],[-308,-1111],[-1086,-1109],[-400,129],[-503,-351],[-14,205],[-67,121],[-273,139],[-993,-105],[-116,-200],[8,38],[-43,34],[-475,67],[-616,-301],[-277,546],[-519,-232],[-1053,272],[-1882,-204],[-390,-249],[-1442,5],[-967,-928],[290,-287],[-397,39],[12,-246],[-308,25],[-96,-244],[-455,220],[-379,-9],[-389,-239],[-84,-328],[-688,-295],[-96,-460],[-563,-71],[46,-240],[-60,80],[-147,30],[-362,-79],[-32,202],[-247,-295],[424,-185],[-178,-57],[-641,247],[-187,-262],[-687,324],[157,66],[173,-61],[-27,155],[-212,-7],[-81,-76],[-31,-140],[-131,66],[-183,11],[-112,-129],[-452,123],[-106,-131],[-382,144],[-338,-134],[-1544,635],[-539,786],[-897,667],[-611,60],[13,163],[-47,-31],[11,-54],[-34,16],[49,-196],[-80,-56],[-348,798],[28,1657],[200,-99],[94,-170],[192,-74],[409,30],[734,922],[-143,1904],[63,211],[189,213],[-171,-286],[175,-490],[-113,500],[273,60],[-227,956],[220,210],[-90,405],[406,81],[2,5],[-16,20],[-21,1],[-77,-39],[-30,192],[96,-11],[196,171],[-189,-78],[-14,-22],[13,-59],[-110,4],[-85,-113],[-84,36],[-110,-186],[-105,1163],[-1544,3321],[-252,1345],[104,1614],[-309,1094],[-726,964],[89,348],[-201,491],[-876,1122],[-171,757],[188,492],[-532,1309],[-1988,3133],[279,-262],[74,654],[66,-931],[177,-192],[-2,23],[-7,12],[-30,16],[-70,247],[-44,1],[116,262],[-49,560],[351,-1007],[-73,-328],[65,24],[61,309],[-84,149],[105,90],[56,-213],[19,-232],[-37,-104],[61,-103],[-46,-202],[120,-94],[59,414],[-13,-312],[94,-300],[538,482],[-6,503],[-473,343],[-265,351],[-263,1121],[-70,4],[60,-220],[-135,176],[238,644],[616,-1091],[-152,-484],[8,-449],[190,-40],[122,173],[129,266],[7,96],[-49,213],[29,32],[235,-1155],[256,-361],[395,447],[-121,385],[86,178],[5,-134],[39,-2],[33,61],[-148,469],[174,4],[4,274],[-150,100],[-212,364],[-284,319],[-251,606],[-26,212],[-183,475],[-371,438],[64,274],[-103,65],[-8,20],[21,36],[-28,23],[154,81],[-221,-18],[16,323],[-550,973],[174,1490],[760,1244],[-47,1018],[162,478],[-424,1096],[839,2044],[481,177],[-272,-987],[88,-514],[154,75],[-139,-321],[8,-277],[386,224],[142,-231],[298,540],[86,318],[-15,86],[-85,84],[129,-68],[344,984],[654,454],[544,85],[266,239],[241,-56],[-26,58],[280,94],[9,17],[-25,26],[46,60],[-6,-115],[129,24],[357,651],[469,182],[184,506],[561,192],[178,374],[-35,147],[90,-117],[144,-43],[442,108],[114,287],[389,15],[14,102],[-116,23],[300,209],[114,302],[139,8],[-97,-531],[232,-78],[639,418],[-26,-316],[524,-237],[604,344],[63,-151],[377,120],[177,355],[227,6],[-86,199],[596,422],[38,-193],[1617,326],[602,963],[1164,-347],[470,358],[2130,539],[1188,673],[958,1256],[364,788],[9,197],[-92,177],[429,140],[-5,140],[-150,100],[169,133],[46,109],[-69,24],[65,96],[323,34],[1041,939],[13,367],[-491,44],[-6,2067],[358,306],[-162,112],[278,355],[285,52],[-5,248],[71,-166],[229,-57],[15,19],[-183,371],[112,218],[643,-80],[-15,126],[-229,182],[348,449],[103,406],[278,89],[95,-237],[-224,-65],[-67,-365],[442,-290],[17,-59],[-29,-84],[-77,-41],[10,-112],[176,-197],[-70,-195],[280,-253],[319,-885],[461,-767],[22,6],[9,13],[17,172],[-87,313],[201,648],[-154,438],[171,89],[17,-108],[49,-57],[536,-464],[-250,625],[400,438],[-19,102],[-389,-268],[-201,458],[-511,270],[173,101],[100,208],[-218,26],[-33,-155],[-44,76],[46,10],[-206,203],[525,-92],[3,16],[-22,22],[-130,51],[198,24],[-374,317],[214,-68],[25,-59],[33,-12],[20,20],[86,-38],[80,62],[-167,169],[72,-18],[12,-60],[131,35],[-220,235],[-191,25],[165,59],[-143,249],[521,16],[49,-87],[60,-56],[-106,10],[62,-136],[-24,52],[-114,-53],[137,-153],[169,-33],[-71,-78],[85,-270],[113,276],[-81,140],[252,-203],[-188,475],[325,-197],[202,-6],[242,-401],[411,-78],[6,-255],[44,-30],[142,129],[-195,243],[-128,-11],[125,213],[188,-191],[926,-67],[270,128],[7,54],[-342,-130],[-294,208],[-304,46],[-361,-88],[-73,61],[123,794],[159,-399],[334,296],[-56,32],[-84,-58],[43,616],[334,219],[-90,236],[-178,-111],[-334,-633],[39,182],[-123,435],[-131,-230],[69,444],[-168,114],[184,6],[19,195],[119,-96],[-9,59],[-163,77],[-59,-83],[29,198],[228,79],[-44,105],[-114,-50],[175,101],[155,-150],[119,-16],[39,293],[22,-30],[-28,-81],[80,-46],[-4,-42],[11,1],[164,384],[-202,17],[105,295],[118,-293],[231,161],[-26,-51],[25,-104],[327,-169],[82,-377],[187,224],[325,-301],[476,-366],[-14,18],[-34,30],[-232,181],[-32,88],[-535,416],[225,319],[-13,70],[-167,-91],[73,233],[-541,-239],[72,322],[191,-37],[125,225],[-211,1],[-232,-284],[51,257],[-153,47],[481,128],[-44,378],[153,21],[219,-510],[290,156],[132,-190],[360,24],[0,53],[-304,82],[304,319],[-178,0],[-57,-99],[-49,117],[-197,-20],[46,109],[-123,-48],[16,96],[-52,7],[-65,-77],[109,204],[91,-112],[97,164],[-305,48],[-18,223],[-150,118],[410,283],[-46,74],[-57,-35],[-40,74],[240,136],[40,170],[-19,-224],[106,30],[33,72],[-6,-55],[35,-57],[-28,-41],[63,-50],[-23,-69],[223,410],[194,-181],[-4,947],[259,-196],[66,68],[-194,-310],[-6,-764],[143,468],[169,30],[69,101],[66,-409],[190,-220],[70,42],[-38,317],[321,24],[-79,342],[-105,52],[275,122],[-86,282],[192,66],[93,249],[-433,226],[-23,228],[65,-220],[73,241],[154,-170],[11,187],[-232,150],[358,29],[-119,-329],[261,174],[-161,-313],[152,5],[-65,-267],[171,-211],[259,142],[-156,149],[91,258],[498,336],[-203,-487],[166,68],[-56,-151],[40,-78],[99,18],[34,33],[-11,-224],[90,-55],[106,461],[120,-167],[166,240],[-137,227],[53,-71],[58,76],[146,-69],[70,72],[110,-72],[29,9],[25,22],[-162,167],[-83,-8],[-153,403],[58,50],[2,-15],[-21,-18],[76,-10],[73,59],[57,-139],[297,218],[439,-698],[118,227],[43,-202],[83,209],[463,-120],[55,-337],[532,-380],[445,-854],[245,-118],[8,-180],[662,-396],[-254,-404],[-192,-1254],[120,-283],[-223,-372],[171,76],[113,186],[35,710],[319,-356],[84,-447],[122,-118],[-105,117],[4,409],[-263,657],[180,324],[157,-155],[-42,319],[120,-410],[-12,218],[129,-117],[-126,428],[393,-378],[-128,365],[-212,194],[31,52],[386,106],[1109,-324]],[[29912,84547],[136,-57],[35,365],[121,-464],[-165,-107],[12,-54],[-139,317]],[[28350,82194],[138,64],[-54,121],[189,134],[-34,-27],[-4,-172],[80,5],[-22,-87],[25,-12],[37,14],[48,-150],[74,-18],[-320,-141],[164,220],[-157,38],[-164,11]],[[6242,66721],[-115,-535],[-245,-81],[-35,91],[395,525]],[[207,52664],[501,-1877],[-614,1111],[-94,731],[207,35]],[[86270,9361],[138,221],[284,-38],[39,102],[140,-50],[122,69],[34,61],[373,-418],[-322,-169],[-101,192],[-707,30]],[[84353,1074],[-184,-45],[-180,333],[-270,-59],[174,432],[-53,60],[-189,-402],[37,-133],[315,-248],[-314,-108],[85,-49],[30,28],[100,-64],[-103,-255],[-239,78],[-12,-88],[211,-95],[-143,6],[-64,-199],[-40,88],[-71,-354],[-410,13],[-352,488],[-27,-131],[106,-97],[-930,169],[-455,-248],[3,298],[-156,240],[-115,13],[408,111],[201,-217],[-81,121],[222,-23],[6,171],[-566,-21],[-185,505],[-8,-7],[-3,-31],[19,-52],[-19,3],[-24,-12],[42,-160],[-154,-74],[152,-82],[-212,-38],[-112,354],[-319,284],[49,121],[-465,186],[-316,963],[-255,105],[89,60],[8,85],[-308,1101],[676,-617],[54,-350],[-39,265],[83,36],[96,-79],[188,-10],[124,42],[158,-438],[-121,426],[-56,23],[-16,0],[-45,-29],[-34,30],[-48,-48],[-89,43],[-56,-34],[-47,35],[107,225],[-158,103],[-31,-121],[-361,618],[-269,-198],[72,583],[-841,958],[233,209],[240,-107],[-107,81],[-62,28],[-72,2],[-76,-36],[-135,-112],[-430,718],[-209,1052],[50,22],[4,36],[220,-106],[45,16],[-17,11],[-3,-1],[-4,-5],[-1,-8],[-13,2],[-4,-13],[-7,3],[-6,1],[7,11],[-2,2],[-54,34],[-157,55],[-6,1],[-6,-8],[1,-29],[-19,7],[-29,-16],[-125,136],[257,445],[-52,552],[1056,-505],[336,93],[4,269],[98,-391],[520,-20],[1564,-927],[512,43],[-16,-156],[77,-58],[27,11],[13,0],[-3,-11],[7,-3],[3,0],[1,3],[2,1],[1,3],[-80,169],[398,156],[81,-347],[90,-46],[16,288],[-106,15],[503,205],[127,-170],[-122,-77],[376,-18],[-64,-94],[187,-320],[381,-371],[89,40],[-18,27],[-7,3],[-4,-3],[-1,-10],[-9,0],[-4,11],[-7,-2],[-8,-23],[4,-10],[-38,-11],[2,62],[-138,232],[-230,66],[91,94],[-251,179],[106,102],[-418,364],[564,213],[316,-152],[334,267],[343,-207],[615,557],[271,-171],[305,7],[86,401],[696,-309],[312,-427],[-245,-168],[218,-608],[-251,-183],[87,-49],[214,167],[-322,-473],[8,-43],[27,-21],[62,12],[122,-327],[-129,-674],[201,-1211],[-134,-165],[19,447],[-189,168],[-158,-19],[203,260],[-390,-252],[24,-25],[27,-4],[118,25],[44,-31],[105,0],[57,-39],[-383,-24],[-361,-684],[73,-42],[140,121],[-19,-566],[-377,-141],[257,-351],[-422,-651],[-844,426],[-24,-86],[108,-119],[325,-56],[-269,-53],[121,-353],[-80,-102],[-259,-82],[-57,214],[193,-145],[31,337],[-183,-85],[-371,573],[-145,47],[-215,-146],[298,69],[315,-472],[-41,-399],[-165,116],[-85,-745]],[[85979,10615],[-382,321],[475,451],[580,-667],[279,-48],[-167,-452],[158,117],[114,-374],[-707,-117],[-98,422],[-361,235],[109,112]],[[86500,9082],[243,28],[82,66],[-123,-319],[-202,225]],[[86379,2799],[-134,40],[149,266],[237,-230],[-381,-270],[129,194]],[[85561,1583],[-270,73],[103,374],[478,-344],[159,121],[-191,7],[42,199],[-151,150],[413,84],[-33,-46],[103,-244],[-180,-164],[210,-584],[-154,17],[-127,72],[-84,241],[-43,-135],[71,-151],[-216,-89],[-227,203],[97,216]],[[84333,802],[366,450],[-263,116],[199,300],[186,-506],[-272,-193],[146,-216],[-197,-395],[-149,286],[-93,-6],[-49,-206],[-92,-22],[-126,200],[52,47],[137,-149],[20,317],[135,-23]],[[78663,8761],[24,-78],[275,-89],[45,-94],[-427,-80],[-28,14],[-25,31],[136,296]],[[78437,9280],[136,163],[193,-111],[-180,-167],[-149,115]],[[78316,9407],[14,-267],[-86,-329],[-115,345],[187,251]],[[76200,10113],[-166,269],[-35,1016],[255,396],[398,-264],[56,-896],[-508,-521]],[[61620,78757],[10,-27489]],[[61630,51268],[-22120,-5],[2,32315],[460,-311],[30,-392],[-66,-80],[3,-56],[-43,-47],[1,-38],[180,63],[173,405],[-167,82],[-13,491],[622,-293],[301,-488],[-107,-137],[8,-72],[298,108],[-455,1025],[227,-293],[-36,269],[549,-174],[251,247],[-329,-159],[101,196],[-338,-9],[-219,428],[482,222],[-623,-36],[-10,252],[-169,-115],[-237,237],[25,249],[356,613],[-79,232],[189,-276],[102,381],[364,104],[175,1376],[197,178],[272,-270],[449,405],[119,326],[-303,342],[33,574],[512,221],[35,640],[128,-90],[136,183],[147,-324],[91,140],[179,-214],[36,92],[-60,108],[291,-12],[-472,222],[241,20],[1,11],[-31,43],[-96,37],[27,53],[-86,-33],[26,536],[458,-94],[-88,-446],[275,103],[138,-352],[25,57],[-62,147],[155,-92],[23,2],[28,22],[-264,354],[234,-138],[8,23],[-5,52],[-33,22],[13,62],[-40,36],[27,40],[-307,198],[194,221],[391,-51],[-60,585],[343,-80],[129,-311],[22,23],[6,20],[-54,72],[96,62],[113,516],[92,-491],[339,-210],[1001,201],[468,-259],[414,389],[372,-193],[588,434],[65,573],[-184,297],[159,173],[-358,138],[240,77],[-172,539],[-711,37],[-300,-246],[-425,641],[-440,9],[289,384],[197,-199],[80,372],[296,-252],[140,-607],[162,230],[-158,56],[-90,581],[358,-443],[-40,287],[187,163],[77,-509],[191,225],[534,-867],[559,259],[56,275],[576,-1089],[460,38],[-57,-215],[212,102],[131,-202],[192,120],[-41,-337],[681,440],[306,-57],[-197,-383],[719,-67],[154,-376],[-78,-208],[49,-100],[156,438],[618,-255],[618,358],[123,-291],[110,-34],[30,-207],[878,-476],[-124,207],[444,-63],[-295,164],[354,306],[498,-46],[838,431],[-635,-725],[145,-318],[822,719],[-288,-465],[326,-50],[-231,-476],[122,-258],[707,271],[182,445],[-519,243],[973,834],[48,-80],[-7,-37],[-330,-236],[111,-114],[100,134],[289,-810],[229,-7],[50,114],[-200,136],[249,81],[356,-355],[-133,-286],[262,98],[-512,-611],[-25,86],[78,218],[-165,-90],[-138,-316],[25,-37],[166,152],[37,-76],[-167,-388],[-216,-34],[34,-337],[-86,59],[-85,227],[-23,-194],[-186,76],[494,-648],[-523,71],[278,-233],[-241,-546],[-339,-224],[141,284],[-134,536],[-378,-698],[-62,47],[-51,171],[21,241],[-237,-540],[-105,285],[-226,-199],[-78,-237],[227,-128],[-101,-176],[-176,77],[49,-790],[498,151],[-424,-960],[-15,-582],[-494,-235],[-406,-838],[9,-270],[-391,-212],[71,-428],[295,-419],[1743,-1159],[191,-610],[594,-355],[407,149],[-199,-211],[154,-471],[598,-17],[69,251],[971,-821],[877,-287],[652,-890]],[[59048,81088],[148,435],[218,-656],[-141,-67],[-225,288]],[[57741,86561],[528,186],[-139,284],[103,37],[36,-120],[107,50],[48,149],[79,-557],[439,230],[-331,-544],[88,-251],[-265,-247],[158,-216],[490,90],[-71,-113],[43,-287],[-743,20],[-520,292],[-275,-137],[288,348],[-63,786]],[[58561,81348],[213,-118],[-239,-219],[-25,182],[51,155]],[[58451,94358],[136,439],[-101,-510],[-130,-88],[41,-72],[-468,-615],[522,846]],[[58234,81614],[-68,-262],[-233,6],[75,327],[226,-71]],[[57622,93232],[-88,-191],[-427,-202],[25,150],[152,-13],[82,214],[41,-90],[215,132]],[[57063,91817],[119,126],[305,79],[-295,-300],[-129,95]],[[57188,86747],[-181,-119],[-13,287],[318,188],[103,-352],[-195,-201],[-32,197]],[[57064,87518],[-121,482],[57,0],[87,-81],[133,-190],[-155,-327],[-37,57],[36,59]],[[55697,92071],[364,52],[479,476],[-321,-548],[-569,-313],[47,333]],[[48328,93818],[-309,922],[327,200],[-18,-1122]],[[43959,93320],[-258,415],[479,219],[325,-168],[285,341],[150,-273],[162,447],[69,-244],[329,20],[261,-538],[-176,-449],[-225,66],[-243,-454],[-808,-582],[-222,248],[-909,581],[-292,1413],[546,-350],[-101,-211],[35,-105],[216,181],[377,-557]],[[43456,92449],[-1439,148],[137,312],[308,57],[78,-263],[-31,202],[203,-167],[-96,192],[-180,62],[11,358],[162,-28],[-74,87],[-204,44],[464,475],[325,-1013],[207,-71],[100,-118],[41,-15],[8,0],[-20,-262]],[[89652,24158],[-619,-262],[-124,-1251],[-115,-216],[-215,68],[-477,724],[64,896],[805,624],[681,-583]]]}
